{"type": "FeatureCollection", "features": [ {"type": "Feature", "properties": {"norad_id": 31411, "name": "FENGYUN 1C DEB", "group": "fengyun-1c-debris", "lat": 52.21828566637409, "lon": -109.04826796667221, "alt_km": 797.3762589983326, "timestamp": "2025-12-24T09:46:31.286323+00:00", "meta": {"OBJECT_NAME": "FENGYUN 1C DEB", "OBJECT_ID": "1999-025BSX", "EPOCH": "2025-12-21T10:37:47.232192", "MEAN_MOTION": 14.28010304, "ECCENTRICITY": 0.01009094, "INCLINATION": 98.668, "RA_OF_ASC_NODE": 56.6601, "ARG_OF_PERICENTER": 229.1813, "MEAN_ANOMALY": 147.9658, "EPHEMERIS_TYPE": 0, "CLASSIFICATION_TYPE": "U", "NORAD_CAT_ID": 31411, "ELEMENT_SET_NO": 999, "REV_AT_EPOCH": 94604, "BSTAR": 0.00039943349, "MEAN_MOTION_DOT": 1.002e-05, "MEAN_MOTION_DDOT": 0}, "tle": {"line1": "1 31411U 99025BSX 25355.44290778  .00001002  00000+0  39943-3 0  9999", "line2": "2 31411  98.6680  56.6601 0100909 229.1813 147.9658 14.28010304946044"}}, "geometry": {"type": "Point", "coordinates": [-109.04826796667221, 52.21828566637409]}}, {"type": "Feature", "properties": {"norad_id": 31412, "name": "FENGYUN 1C DEB", "group": "fengyun-1c-debris", "lat": 66.96496677687064, "lon": -78.99592341357895, "alt_km": 887.9614797124141, "timestamp": "2025-12-24T09:46:31.286334+00:00", "meta": {"OBJECT_NAME": "FENGYUN 1C DEB", "OBJECT_ID": "1999-025BSY", "EPOCH": "2025-12-22T19:58:52.181760", "MEAN_MOTION": 14.0989735, "ECCENTRICITY": 0.00828736, "INCLINATION": 98.551, "RA_OF_ASC_NODE": 300.2304, "ARG_OF_PERICENTER": 307.1793, "MEAN_ANOMALY": 52.1832, "EPHEMERIS_TYPE": 0, "CLASSIFICATION_TYPE": "U", "NORAD_CAT_ID": 31412, "ELEMENT_SET_NO": 999, "REV_AT_EPOCH": 61134, "BSTAR": 0.0017320199, "MEAN_MOTION_DOT": 3.107e-05, "MEAN_MOTION_DDOT": 0}, "tle": {"line1": "1 31412U 99025BSY 25356.83254840  .00003107  00000+0  17320-2 0  9996", "line2": "2 31412  98.5510 300.2304 0082873 307.1793  52.1832 14.09897350611343"}}, "geometry": {"type": "Point", "coordinates": [-78.99592341357895, 66.96496677687064]}}, {"type": "Feature", "properties": {"norad_id": 31415, "name": "FENGYUN 1C DEB", "group": "fengyun-1c-debris", "lat": 71.8726883102784, "lon": -79.56665574438908, "alt_km": 743.8647459398198, "timestamp": "2025-12-24T09:46:31.286344+00:00", "meta": {"OBJECT_NAME": "FENGYUN 1C DEB", "OBJECT_ID": "1999-025BTB", "EPOCH": "2025-12-14T14:26:42.789696", "MEAN_MOTION": 14.30617484, "ECCENTRICITY": 0.00641277, "INCLINATION": 99.6387, "RA_OF_ASC_NODE": 300.8477, "ARG_OF_PERICENTER": 69.4394, "MEAN_ANOMALY": 291.365, "EPHEMERIS_TYPE": 0, "CLASSIFICATION_TYPE": "U", "NORAD_CAT_ID": 31415, "ELEMENT_SET_NO": 999, "REV_AT_EPOCH": 62857, "BSTAR": 0.0013058291, "MEAN_MOTION_DOT": 3.436e-05, "MEAN_MOTION_DDOT": 0}, "tle": {"line1": "1 31415U 99025BTB 25348.60188414  .00003436  00000+0  13058-2 0  9997", "line2": "2 31415  99.6387 300.8477 0064127  69.4394 291.3650 14.30617484628574"}}, "geometry": {"type": "Point", "coordinates": [-79.56665574438908, 71.8726883102784]}}, {"type": "Feature", "properties": {"norad_id": 31416, "name": "FENGYUN 1C DEB", "group": "fengyun-1c-debris", "lat": 4.955131790411765, "lon": -129.89816459360125, "alt_km": 686.7377966943868, "timestamp": "2025-12-24T09:46:31.286354+00:00", "meta": {"OBJECT_NAME": "FENGYUN 1C DEB", "OBJECT_ID": "1999-025BTC", "EPOCH": "2025-12-22T23:37:14.702880", "MEAN_MOTION": 14.40692205, "ECCENTRICITY": 0.01332513, "INCLINATION": 99.0495, "RA_OF_ASC_NODE": 47.8051, "ARG_OF_PERICENTER": 220.592, "MEAN_ANOMALY": 138.5272, "EPHEMERIS_TYPE": 0, "CLASSIFICATION_TYPE": "U", "NORAD_CAT_ID": 31416, "ELEMENT_SET_NO": 999, "REV_AT_EPOCH": 65667, "BSTAR": 0.00026471718, "MEAN_MOTION_DOT": 8.84e-06, "MEAN_MOTION_DDOT": 0}, "tle": {"line1": "1 31416U 99025BTC 25356.98419795  .00000884  00000+0  26472-3 0  9996", "line2": "2 31416  99.0495  47.8051 0133251 220.5920 138.5272 14.40692205656674"}}, "geometry": {"type": "Point", "coordinates": [-129.89816459360125, 4.955131790411765]}}, {"type": "Feature", "properties": {"norad_id": 31420, "name": "FENGYUN 1C DEB", "group": "fengyun-1c-debris", "lat": 26.44573910121059, "lon": -108.77469044683876, "alt_km": 761.2689568767082, "timestamp": "2025-12-24T09:46:31.286365+00:00", "meta": {"OBJECT_NAME": "FENGYUN 1C DEB", "OBJECT_ID": "1999-025BTG", "EPOCH": "2025-12-22T11:49:55.637184", "MEAN_MOTION": 14.40849998, "ECCENTRICITY": 0.01350477, "INCLINATION": 97.5584, "RA_OF_ASC_NODE": 253.3186, "ARG_OF_PERICENTER": 298.0006, "MEAN_ANOMALY": 243.5158, "EPHEMERIS_TYPE": 0, "CLASSIFICATION_TYPE": "U", "NORAD_CAT_ID": 31420, "ELEMENT_SET_NO": 999, "REV_AT_EPOCH": 65134, "BSTAR": 0.00061134535, "MEAN_MOTION_DOT": 2.142e-05, "MEAN_MOTION_DDOT": 0}, "tle": {"line1": "1 31420U 99025BTG 25356.49300506  .00002142  00000+0  61135-3 0  9990", "line2": "2 31420  97.5584 253.3186 0135047 298.0006 243.5158 14.40849998651346"}}, "geometry": {"type": "Point", "coordinates": [-108.77469044683876, 26.44573910121059]}}, {"type": "Feature", "properties": {"norad_id": 31422, "name": "FENGYUN 1C DEB", "group": "fengyun-1c-debris", "lat": 64.01774859656109, "lon": -23.39806144074905, "alt_km": 876.9924962077021, "timestamp": "2025-12-24T09:46:31.286375+00:00", "meta": {"OBJECT_NAME": "FENGYUN 1C DEB", "OBJECT_ID": "1999-025BTJ", "EPOCH": "2025-12-23T06:17:55.864032", "MEAN_MOTION": 14.09635107, "ECCENTRICITY": 0.00336751, "INCLINATION": 98.7601, "RA_OF_ASC_NODE": 353.9328, "ARG_OF_PERICENTER": 270.3291, "MEAN_ANOMALY": 108.4736, "EPHEMERIS_TYPE": 0, "CLASSIFICATION_TYPE": "U", "NORAD_CAT_ID": 31422, "ELEMENT_SET_NO": 999, "REV_AT_EPOCH": 95810, "BSTAR": 0.00030559318, "MEAN_MOTION_DOT": 4.95e-06, "MEAN_MOTION_DDOT": 0}, "tle": {"line1": "1 31422U 99025BTJ 25357.26245213  .00000495  00000+0  30559-3 0  9996", "line2": "2 31422  98.7601 353.9328 0033675 270.3291 108.4736 14.09635107958104"}}, "geometry": {"type": "Point", "coordinates": [-23.39806144074905, 64.01774859656109]}}, {"type": "Feature", "properties": {"norad_id": 31423, "name": "FENGYUN 1C DEB", "group": "fengyun-1c-debris", "lat": 20.105695429477652, "lon": -24.236897326982692, "alt_km": 835.2958556078647, "timestamp": "2025-12-24T09:46:31.286385+00:00", "meta": {"OBJECT_NAME": "FENGYUN 1C DEB", "OBJECT_ID": "1999-025BTK", "EPOCH": "2025-12-23T04:59:26.913696", "MEAN_MOTION": 14.22978263, "ECCENTRICITY": 0.00366305, "INCLINATION": 98.5844, "RA_OF_ASC_NODE": 337.7638, "ARG_OF_PERICENTER": 163.4682, "MEAN_ANOMALY": 196.77, "EPHEMERIS_TYPE": 0, "CLASSIFICATION_TYPE": "U", "NORAD_CAT_ID": 31423, "ELEMENT_SET_NO": 999, "REV_AT_EPOCH": 97117, "BSTAR": 0.0001256605, "MEAN_MOTION_DOT": 2.42e-06, "MEAN_MOTION_DDOT": 0}, "tle": {"line1": "1 31423U 99025BTK 25357.20795039  .00000242  00000+0  12566-3 0  9995", "line2": "2 31423  98.5844 337.7638 0036630 163.4682 196.7700 14.22978263971177"}}, "geometry": {"type": "Point", "coordinates": [-24.236897326982692, 20.105695429477652]}}, {"type": "Feature", "properties": {"norad_id": 31424, "name": "FENGYUN 1C DEB", "group": "fengyun-1c-debris", "lat": -64.99427129728191, "lon": -156.94917047842426, "alt_km": 940.2028728964469, "timestamp": "2025-12-24T09:46:31.286395+00:00", "meta": {"OBJECT_NAME": "FENGYUN 1C DEB", "OBJECT_ID": "1999-025BTL", "EPOCH": "2025-12-19T21:11:45.819744", "MEAN_MOTION": 14.08364776, "ECCENTRICITY": 0.0094457, "INCLINATION": 98.4802, "RA_OF_ASC_NODE": 37.4514, "ARG_OF_PERICENTER": 85.2675, "MEAN_ANOMALY": 275.9275, "EPHEMERIS_TYPE": 0, "CLASSIFICATION_TYPE": "U", "NORAD_CAT_ID": 31424, "ELEMENT_SET_NO": 999, "REV_AT_EPOCH": 63271, "BSTAR": 9.2141e-05, "MEAN_MOTION_DOT": 1.25e-06, "MEAN_MOTION_DDOT": 0}, "tle": {"line1": "1 31424U 99025BTL 25353.88316921  .00000125  00000+0  92141-4 0  9993", "line2": "2 31424  98.4802  37.4514 0094457  85.2675 275.9275 14.08364776632715"}}, "geometry": {"type": "Point", "coordinates": [-156.94917047842426, -64.99427129728191]}}, {"type": "Feature", "properties": {"norad_id": 31426, "name": "FENGYUN 1C DEB", "group": "fengyun-1c-debris", "lat": 23.04607563993438, "lon": 151.46185443859247, "alt_km": 1076.9406235625383, "timestamp": "2025-12-24T09:46:31.286405+00:00", "meta": {"OBJECT_NAME": "FENGYUN 1C DEB", "OBJECT_ID": "1999-025BTN", "EPOCH": "2025-12-23T05:08:32.601408", "MEAN_MOTION": 13.90152559, "ECCENTRICITY": 0.03243368, "INCLINATION": 98.5801, "RA_OF_ASC_NODE": 154.0413, "ARG_OF_PERICENTER": 157.2139, "MEAN_ANOMALY": 21.7207, "EPHEMERIS_TYPE": 0, "CLASSIFICATION_TYPE": "U", "NORAD_CAT_ID": 31426, "ELEMENT_SET_NO": 999, "REV_AT_EPOCH": 93718, "BSTAR": 0.0021065776, "MEAN_MOTION_DOT": 3.946e-05, "MEAN_MOTION_DDOT": 0}, "tle": {"line1": "1 31426U 99025BTN 25357.21426622  .00003946  00000+0  21066-2 0  9996", "line2": "2 31426  98.5801 154.0413 0324336 157.2139  21.7207 13.90152559937183"}}, "geometry": {"type": "Point", "coordinates": [151.46185443859247, 23.04607563993438]}}, {"type": "Feature", "properties": {"norad_id": 31427, "name": "FENGYUN 1C DEB", "group": "fengyun-1c-debris", "lat": -37.504308058338786, "lon": 114.69644243742236, "alt_km": 682.4195595039055, "timestamp": "2025-12-24T09:46:31.286415+00:00", "meta": {"OBJECT_NAME": "FENGYUN 1C DEB", "OBJECT_ID": "1999-025BTP", "EPOCH": "2025-12-23T05:57:55.232352", "MEAN_MOTION": 14.58870278, "ECCENTRICITY": 0.00310487, "INCLINATION": 98.6704, "RA_OF_ASC_NODE": 106.7623, "ARG_OF_PERICENTER": 345.3085, "MEAN_ANOMALY": 14.7208, "EPHEMERIS_TYPE": 0, "CLASSIFICATION_TYPE": "U", "NORAD_CAT_ID": 31427, "ELEMENT_SET_NO": 999, "REV_AT_EPOCH": 97034, "BSTAR": 0.0023695532, "MEAN_MOTION_DOT": 0.00011132, "MEAN_MOTION_DDOT": 0}, "tle": {"line1": "1 31427U 99025BTP 25357.24855593  .00011132  00000+0  23696-2 0  9990", "line2": "2 31427  98.6704 106.7623 0031048 345.3085  14.7208 14.58870278970347"}}, "geometry": {"type": "Point", "coordinates": [114.69644243742236, -37.504308058338786]}}]}